# Made by eph2tle, compiled Dec  6 2022 20:03:35
# Run at Mon Dec 12 21:30:23 2022
#
#    The following TLEs (Two-Line Elements) were generated by fitting
# a numerically-integrated ephemeris,  based on the orbit given below,
# to the SDP4/SGP4 models.  Each TLE is good for the interval between
# its epoch and the epoch of the subsequent TLE (usually one day).
# The maximum deviation between the numerically integrated ephemerides
# and the TLE-based ephemeris, in kilometers,  is given for each TLE
# as the "worst residual".
#
#    This fitting is done using the 'eph2tle' code packaged with Find_Orb.
# The code has details on how the TLEs were computed :
#
#    https://github.com/Bill-Gray/find_orb/eph2tle.cpp
#
#    Be warned:  the error given is that between the numerically
# integrated ephems and the TLE model.  There will usually be at
# least some additional difference between the ephems and the actual
# motion of the satellite,  especially if the ephemerides are based
# on a short arc.  If the following orbital elements say something
# like "[based on] 10 observations 2015 Jan. 1-13",  and the TLEs
# are for 2015 May,  the extrapolation may be tenuous at best.  If
# your application requires a specific level of accuracy,  you may
# want to contact me;  I can give you some idea as to the fit of the
# underlying data (and possibly TLEs based on newer data).
#
#   You can usually find the underlying observational data,  and the
# fitted orbit,  residuals,  ephemerides,  and sometimes some comments
# about the object,  among the pages listed at
#
#    https://www.projectpluto.com/pluto/mpecs/pseudo.htm
#
#    WARNING:  for this object,  "normal" TLEs cannot be fitted.  (This
# usually means an object with an hyperbolic or nearly-parabolic orbit.)
# For this and similar cases,   an alternative model is used,  in which
# most of the traditional TLE data is replaced by six signed 8-digit hex
# numbers.  These six numbers are a state vector,  numerically integrated
# using a simplified force model.  This is necessary for objects at L2 or
# L1,  and sometimes for objects in high orbits where the SDP4/SGP4 model
# fails.  Some documentation is in 'get_el.cpp' in the source code at
# https://www.github.com/Bill-Gray/sat_code ; look for 'hex' in that file,
# with the actual integration done in 'sdp4.cpp'.  But be aware:  it's my
# own extension,  doesn't work with other code,  and is therefore used
# only when necessary.
#
#    Also,  if you use a TLE outside the "correct" time range (between
# its MJD and that of the next TLE),  all bets are off.  I've carefully
# computed and minimized the worst error over the "correct" time frame,
# but the ephemeris may (or may not) diverge wildly outside of it.
#
# Ephem range: 59925.000000 60004.000000 1.000000
# Created Mon Dec 12 21:30:14 2022
# Ephemeris start: 12 Dec 2022  0:00:00
# Ephemeris end:    1 Mar 2023  0:00:00
# Times are all TDT
# Positions/velocities are in equatorial J2000
# Orbital elements:  2022-168C = Hakuto-R/LFL booster = NORAD 54698
#    Perigee 2022 Dec 11.3496682 +/- 0.00555 TT =  8:23:31.33 (JD 2459924.8496682)
# Epoch 2022 Dec 12.0 TT = JDT 2459925.5                           Find_Orb
# M   1.8824134623 +/- 0.7            (J2000 equator)
# n   2.8945430619 +/- 1.09           Peri.  219.4320752 +/- 0.30
# a   0.0070354424 +/- 0.00176        Node    40.9678893 +/- 0.051
# e   0.993578597 +/- 0.0016          Incl.   29.1212132 +/- 0.07
# P 124.37d                  H 26.63  G  0.15   U 12.8
# q 6758.4444923 +/- 15.8    Q 0.0140257075 +/- 0.00352
# From 9 observations 2022 Dec. 12 (1.7 hr); mean residual 0".170
#
# 1 NoradU COSPAR   Epoch.epoch     dn/dt/2  d2n/dt2/6 BSTAR    T El# C
# 2 NoradU Inclina RAAscNode Eccent  ArgPeri MeanAno  MeanMotion Rev# C

# Worst residual: 0.59 km
# MJD 59925.000000 (2022 Dec 12  0:00)
2022-168C = Hakuto-R/LFL booster = NORAD 54698
1 54698U 22168C   22345.99919926 +001IW3G5 +002ATPHV +000EMLO4H 18084
2 54698                          +0004MS55 +000B4LUP +0002YRPV     04

# Worst residual: 0.63 km
# MJD 59926.000000 (2022 Dec 13  0:00)
2022-168C = Hakuto-R/LFL booster = NORAD 54698
1 54698U 22168C   22346.99919926 +002CXB8V +004IMOPO +00112BWOH 18088
2 54698                          +0002RAB9 +0007YQG4 +0002BS79     04

# Worst residual: 0.70 km
# MJD 59927.000000 (2022 Dec 14  0:00)
2022-168C = Hakuto-R/LFL booster = NORAD 54698
1 54698U 22168C   22347.99919926 +002XL920 +006966RL +001JPLXBH 18082
2 54698                          +00023QKP +0006N7VI +00020L27     03

# Worst residual: 1.06 km
# MJD 59928.000000 (2022 Dec 15  0:00)
2022-168C = Hakuto-R/LFL booster = NORAD 54698
1 54698U 22168C   22348.99919926 +003E3E6E +007QWJJV +00207VLKH 18080
2 54698                          +0001QUNX +0005UIRS +0001TFB7     08

# Worst residual: 0.88 km
# MJD 59929.000000 (2022 Dec 16  0:00)
2022-168C = Hakuto-R/LFL booster = NORAD 54698
1 54698U 22168C   22349.99919926 +003S437Y +0092WSSQ +002F9ZMJH 18082
2 54698                          +0001II3B +0005ALL3 +0001OBKT     07

# Worst residual: 0.79 km
# MJD 59930.000000 (2022 Dec 17  0:00)
2022-168C = Hakuto-R/LFL booster = NORAD 54698
1 54698U 22168C   22350.99919926 +0044G1NV +00AASIR0 +002T9U7LH 18082
2 54698                          +0001CKIB +0004VQKR +0001KHA7     07

# Worst residual: 0.96 km
# MJD 59931.000000 (2022 Dec 18  0:00)
2022-168C = Hakuto-R/LFL booster = NORAD 54698
1 54698U 22168C   22351.99919926 +004FJHL0 +00BFJ04X +0036GGB3H 18086
2 54698                          +0001832F +0004K6G1 +0001HI8C     08

# Worst residual: 0.95 km
# MJD 59932.000000 (2022 Dec 19  0:00)
2022-168C = Hakuto-R/LFL booster = NORAD 54698
1 54698U 22168C   22352.99919926 +004POGJF +00CHS8RN +003J0A5AH 18087
2 54698                          +00014IV5 +0004AYIF +0001F6DM     05

# Worst residual: 0.78 km
# MJD 59933.000000 (2022 Dec 20  0:00)
2022-168C = Hakuto-R/LFL booster = NORAD 54698
1 54698U 22168C   22353.99919926 +004Z1FT3 +00DI1Q8M +003V28WIH 18088
2 54698                          +00011K8X +00043HP8 +0001DCOV     00

# Worst residual: 0.58 km
# MJD 59934.000000 (2022 Dec 21  0:00)
2022-168C = Hakuto-R/LFL booster = NORAD 54698
1 54698U 22168C   22354.99919926 +0057QLLX +00EGOTVR +0046Q9QRH 18080
2 54698                          +0000YZ9R +0003XE1H +0001BXP7     05

# Worst residual: 0.50 km
# MJD 59935.000000 (2022 Dec 22  0:00)
2022-168C = Hakuto-R/LFL booster = NORAD 54698
1 54698U 22168C   22355.99919926 +005FUHKU +00FE02SQ +004I3JRVH 18084
2 54698                          +0000WM5I +0003SDGM +0001AUQZ     03

# Worst residual: 0.61 km
# MJD 59936.000000 (2022 Dec 23  0:00)
2022-168C = Hakuto-R/LFL booster = NORAD 54698
1 54698U 22168C   22356.99919926 +005NEG7L +00GA7VGN +004T8P22H 18086
2 54698                          +0000UCML +0003O83G +0001A1KQ     00

# Worst residual: 0.81 km
# MJD 59937.000000 (2022 Dec 24  0:00)
2022-168C = Hakuto-R/LFL booster = NORAD 54698
1 54698U 22168C   22357.99919926 +005UEYSQ +00H5IWKS +00547T07H 18085
2 54698                          +0000S3PZ +0003KREX +00019G3U     03

# Worst residual: 0.92 km
# MJD 59938.000000 (2022 Dec 25  0:00)
2022-168C = Hakuto-R/LFL booster = NORAD 54698
1 54698U 22168C   22358.99919926 +0060VYAR +00I02ESB +005F2HRCH 18088
2 54698                          +0000PTOS +0003HTVA +000190F3     00

# Worst residual: 0.80 km
# MJD 59939.000000 (2022 Dec 26  0:00)
2022-168C = Hakuto-R/LFL booster = NORAD 54698
1 54698U 22168C   22359.99919926 +0066T1HH +00ITYEQR +005PTXP3H 18085
2 54698                          +0000NHW0 +0003FATT +00018OSW     06

# Worst residual: 0.49 km
# MJD 59940.000000 (2022 Dec 27  0:00)
2022-168C = Hakuto-R/LFL booster = NORAD 54698
1 54698U 22168C   22360.99919926 +006C5TK6 +00JN9X72 +0060IXNEH 18087
2 54698                          +0000L4JR +0003D2M9 +00018FUG     01

# Worst residual: 0.27 km
# MJD 59941.000000 (2022 Dec 28  0:00)
2022-168C = Hakuto-R/LFL booster = NORAD 54698
1 54698U 22168C   22361.99919926 +006GY07R +00KG37B3 +006B5ZSQH 18084
2 54698                          +0000IQF8 +0003B2IO +000188HY     04

# Worst residual: 0.25 km
# MJD 59942.000000 (2022 Dec 29  0:00)
2022-168C = Hakuto-R/LFL booster = NORAD 54698
1 54698U 22168C   22362.99919926 +006L5IS6 +00L8FYIJ +006LRES3H 18082
2 54698                          +0000GCH4 +000398NQ +00018226     07

# Worst residual: 0.54 km
# MJD 59943.000000 (2022 Dec 30  0:00)
2022-168C = Hakuto-R/LFL booster = NORAD 54698
1 54698U 22168C   22363.99919926 +006OSIX1 +00M0DJ6J +006WBCIVH 18088
2 54698                          +0000DZN1 +00037JUP +00017W4M     07

# Worst residual: 0.72 km
# MJD 59944.000000 (2022 Dec 31  0:00)
2022-168C = Hakuto-R/LFL booster = NORAD 54698
1 54698U 22168C   22364.99919926 +006RVDP5 +00MRX1P9 +0076TWHXH 18084
2 54698                          +0000BOOS +00035ZEV +00017QIV     00

# Worst residual: 0.78 km
# MJD 59945.000000 (2023 Jan  1  0:00)
2022-168C = Hakuto-R/LFL booster = NORAD 54698
1 54698U 22168C   22365.99919926 +006UEM11 +00NJ3I4S +007HB5BVH 18088
2 54698                          +00009G70 +00034J02 +00017L7Z     04

# Worst residual: 0.75 km
# MJD 59946.000000 (2023 Jan  2  0:00)
2022-168C = Hakuto-R/LFL booster = NORAD 54698
1 54698U 22168C   23001.99919926 +006WEUXQ +00O9XUPN +007RR5WLH 18086
2 54698                          +00007AJL +000336IR +00017GAR     01

# Worst residual: 0.69 km
# MJD 59947.000000 (2023 Jan  3  0:00)
2022-168C = Hakuto-R/LFL booster = NORAD 54698
1 54698U 22168C   23002.99919926 +006XWU2V +00P0H1LU +0082623CH 18080
2 54698                          +000057YS +00031Y1I +00017BWF     09

# Worst residual: 0.66 km
# MJD 59948.000000 (2023 Jan  4  0:00)
2022-168C = Hakuto-R/LFL booster = NORAD 54698
1 54698U 22168C   23003.99919926 +006YXAJ2 +00PQQ24F +008CJZ7UH 18080
2 54698                          +000038KB +00030TQY +0001787S     01

